STARLINK-4135           
1 53248U 22086G   26050.02764135  .00000941  00000+0  77230-4 0  9997
2 53248  53.2169 283.0063 0001355  90.9919 269.1228 15.08837199198495
STARLINK-4128           
1 53249U 22086H   26050.03088947 -.00000915  00000+0 -39389-4 0  9995
2 53249  53.2162 277.8957 0001578  80.6013 279.5157 15.08843112198263
STARLINK-4059           
1 53250U 22086J   26050.03360677  .00000374  00000+0  41552-4 0  9992
2 53250  53.2167 277.8723 0001501  81.2875 278.8287 15.08849684198255
STARLINK-4129           
1 53251U 22086K   26050.02256667  .00000780  00000+0  67084-4 0  9994
2 53251  53.2168 277.9212 0001456  85.6132 274.5027 15.08839639198247
STARLINK-4132           
1 53252U 22086L   26050.02624114  .00000720  00000+0  63297-4 0  9997
2 53252  53.2171 277.8580 0001484  81.9740 278.1420 15.08839718198261
STARLINK-4133           
1 53253U 22086M   26050.01890780  .00001641  00000+0  12122-3 0  9994
2 53253  53.2165 277.9388 0001203  95.6476 264.4653 15.08821322198245
STARLINK-4134           
1 53254U 22086N   26049.96097118  .00001177  00000+0  91995-4 0  9991
2 53254  53.2173 278.2092 0001466  82.1796 277.9362 15.08848185198251
STARLINK-4142           
1 53255U 22086P   26050.01153037  .00000584  00000+0  54797-4 0  9993
2 53255  53.2168 277.9728 0001379  93.9904 266.1245 15.08835069198248
STARLINK-4147           
1 53256U 22086Q   26050.01520892  .00001551  00000+0  11551-3 0  9996
2 53256  53.2169 277.9565 0001421  90.4587 269.6568 15.08839285198246
STARLINK-4144           
1 53257U 22086R   26049.93425038  .00000468  00000+0  47521-4 0  9995
2 53257  53.2171 278.3195 0001474  86.5646 273.5515 15.08832323198235
STARLINK-4127           
1 53258U 22086S   26050.14031715  .00005125  00000+0  33971-3 0  9994
2 53258  53.2157 277.3965 0001447  90.7045 269.4113 15.08856777198264
STARLINK-4140           
1 53259U 22086T   26050.02988342  .00000468  00000+0  47458-4 0  9990
2 53259  53.2166 277.5318 0001316  76.2770 283.8369 15.08843207198254
STARLINK-4062           
1 53261U 22086V   26050.05568971 -.00002978  00000+0 -16915-3 0  9991
2 53261  53.2179 277.7707 0001644  98.4242 261.6937 15.08827768198258
STARLINK-4085           
1 53262U 22086W   26049.99681061  .00000316  00000+0  37981-4 0  9998
2 53262  53.2173 278.0383 0001458  92.9386 267.1773 15.08834041198248
STARLINK-4130           
1 53263U 22086X   26049.91950812  .00001513  00000+0  11314-3 0  9995
2 53263  53.2170 278.3848 0001280  85.4843 274.6296 15.08844931198234
STARLINK-3950           
1 53264U 22086Y   26050.05937065  .00000317  00000+0  38009-4 0  9990
2 53264  53.2169 277.7576 0001381  93.8537 266.2613 15.08834354198259
STARLINK-4097           
1 53265U 22086Z   26050.11088699  .00001867  00000+0  13534-3 0  9994
2 53265  53.2161 277.5256 0001438  83.8214 276.2942 15.08838533198269
STARLINK-4058           
1 53266U 22086AA  26049.84960737 -.00000192  00000+0  60104-5 0  9993
2 53266  53.2164 278.6976 0001427  86.2565 273.8590 15.08837236198225
STARLINK-4060           
1 53267U 22086AB  26050.03728489 -.00000010  00000+0  17471-4 0  9990
2 53267  53.2170 277.8569 0001390  88.6244 271.4907 15.08838586198259
STARLINK-4109           
1 53268U 22086AC  26050.04096582  .00000131  00000+0  26342-4 0  9994
2 53268  53.2172 277.8387 0001358  93.5526 266.5621 15.08836441198258
STARLINK-4057           
1 53269U 22086AD  26050.16668981  .01140644  00000+0  21391-1 0  9997
2 53269  53.2381 264.4727 0001182  84.3874 296.3286 15.45474702  5782
STARLINK-4122           
1 53272U 22086AG  26049.90204710  .00000046  00000+0  21008-4 0  9995
2 53272  53.2166 268.4632 0001520  94.3016 265.8150 15.08838586198362
STARLINK-4051           
1 53273U 22086AH  26050.01613661  .00001411  00000+0  10674-3 0  9992
2 53273  53.2157 267.9523 0001195  85.8584 274.2545 15.08840380198377
STARLINK-4050           
1 53274U 22086AJ  26049.89468765  .00000290  00000+0  36306-4 0  9995
2 53274  53.2168 268.4954 0001433  95.3544 264.7611 15.08835696198362
STARLINK-4179           
1 53275U 22086AK  26049.94620699 -.00000228  00000+0  37782-5 0  9990
2 53275  53.2163 268.2652 0001661  91.0731 269.0451 15.08839127198368
STARLINK-4174           
1 53276U 22086AL  26050.01980605 -.00000562  00000+0 -17233-4 0  9997
2 53276  53.2170 267.9340 0001551  95.6121 264.5048 15.08838206198378
STARLINK-4178           
1 53277U 22086AM  26050.00509112  .00000068  00000+0  22378-4 0  9992
2 53277  53.2163 268.0301 0001481  87.1813 272.9348 15.08838716198378
STARLINK-4180           
1 53278U 22086AN  26050.00876749  .00000264  00000+0  34685-4 0  9998
2 53278  53.2168 267.9831 0001574  91.4766 268.6406 15.08838670198374
STARLINK-4169           
1 53280U 22086AQ  26049.79758860  .00000689  00000+0  61369-4 0  9998
2 53280  53.2166 223.6051 0001325  90.3647 269.7497 15.08838485198981
STARLINK-4164           
1 53282U 22086AS  26050.00140834  .00000657  00000+0  59388-4 0  9995
2 53282  53.2172 268.0186 0001594  86.0247 274.0928 15.08840023198370
STARLINK-4175           
1 53283U 22086AT  26049.99036872  .00001030  00000+0  82789-4 0  9995
2 53283  53.2166 268.0683 0001437  92.9715 267.1441 15.08838945198371
STARLINK-4173           
1 53285U 22086AV  26050.04556949  .00000485  00000+0  48575-4 0  9995
2 53285  53.2167 267.8206 0001454  97.2167 262.8990 15.08836912198373
STARLINK-4165           
1 53286U 22086AW  26049.89096655 -.00000391  00000+0 -64828-5 0  9998
2 53286  53.2167 268.2022 0001559  99.6806 260.4362 15.08840971198352
STARLINK-4107           
1 53287U 22086AX  26050.03821450  .00001774  00000+0  12951-3 0  9998
2 53287  53.2164 267.8531 0001247 111.7979 248.3146 15.08848324198378
STARLINK-4162           
1 53288U 22086AY  26049.98301110 -.00001063  00000+0 -48746-4 0  9992
2 53288  53.2163 268.1008 0001328  87.3902 272.7242 15.08832657198364
STARLINK-4176           
1 53289U 22086AZ  26050.01476450  .00000735  00000+0  64267-4 0  9998
2 53289  53.2167 263.0991 0001407  99.3379 260.7772 15.08836706198435
STARLINK-4149           
1 53290U 22086BA  26049.97565067  .00000626  00000+0  57412-4 0  9999
2 53290  53.2165 268.1383 0001456  88.5164 271.5995 15.08833596198365
STARLINK-4166           
1 53291U 22086BB  26049.98160343  .00000604  00000+0  56029-4 0  9998
2 53291  53.2167 262.8961 0001556  84.9052 275.2118 15.08837845198435
STARLINK-4159           
1 53292U 22086BC  26049.98670999  .00000301  00000+0  36997-4 0  9998
2 53292  53.2163 268.2663 0001404  91.3763 268.7390 15.08836704198368
STARLINK-4148           
1 53293U 22086BD  26050.07223508  .00003697  00000+0  25021-3 0  9997
2 53293  53.2162 257.6888 0001300  91.6884 268.4257 15.08842419198517
STARLINK-4146           
1 53294U 22086BE  26049.89191206  .00000900  00000+0  74619-4 0  9997
2 53294  53.2155 258.3456 0001528  96.8033 263.3133 15.08849047198537
YAOGAN-35 03A           
1 53316U 22088A   26050.24211176  .00068599  00000+0  93442-3 0  9996
2 53316  35.0047 114.8418 0009518  13.1268 346.9703 15.56305596199556
YAOGAN-35 03B           
1 53318U 22088C   26049.92586231  .00006386  00000+0  26825-3 0  9995
2 53318  34.9868 233.4898 0013207  28.8218 331.3224 15.22690069198296
YAOGAN-35 03C           
1 53320U 22088E   26049.84821546  .00019069  00000+0  49834-3 0  9997
2 53320  34.9957 197.4759 0001649   9.5849 350.4901 15.37864970198661
COSMOS 2558             
1 53323U 22089A   26050.15184095  .00045580  00000+0  62241-3 0  9992
2 53323  97.2271 151.1460 0002160 114.5582 245.5899 15.57344538199364
TECMS                   
1 53346U 22090A   26048.65116729 -.00000183  00000+0 -52033-5 0  9992
2 53346  97.3278 120.0677 0002680 288.9663  71.1283 15.21303413196630
SBIRS GEO-6 (USA 336)   
1 53355U 22092A   26049.91992211 -.00000286  00000+0  00000+0 0  9996
2 53355   3.4617 315.6161 0002028   9.0073 294.4023  1.00271156 13043
KHAYYAM                 
1 53370U 22096A   26050.19935325  .00005257  00000+0  21658-3 0  9990
2 53370  97.3538 316.5742 0002713  87.3493 272.8055 15.24516981196603
STARLINK-4522           
1 53388U 22097A   26049.77876366 -.00001419  00000+0 -71062-4 0  9994
2 53388  53.2176 209.0147 0001225 103.0641 257.0488 15.08841724195998
STARLINK-4523           
1 53389U 22097B   26049.77139175  .00004067  00000+0  27328-3 0  9990
2 53389  53.2161 209.0469 0001477  91.9337 268.1824 15.08865797195810
STARLINK-4517           
1 53390U 22097C   26049.77508239  .00000140  00000+0  26877-4 0  9990
2 53390  53.2156 209.0305 0001350  98.8453 261.2692 15.08841904195967
STARLINK-4521           
1 53391U 22097D   26049.70148821  .00000367  00000+0  41166-4 0  9990
2 53391  53.2168 209.3609 0001244  93.0156 267.0979 15.08837507195809
STARLINK-4535           
1 53392U 22097E   26049.95908618  .00000747  00000+0  65031-4 0  9995
2 53392  53.2168 208.2036 0001433  89.7838 270.3319 15.08841017195841
STARLINK-4530           
1 53393U 22097F   26049.69780680  .00000370  00000+0  41305-4 0  9994
2 53393  53.2164 209.3778 0001271  86.3179 273.7959 15.08838512195803
STARLINK-4544           
1 53394U 22097G   26049.84219741  .00000723  00000+0  63537-4 0  9990
2 53394  53.2161 198.3409 0001193  96.3400 263.7728 15.08839789195978
STARLINK-4534           
1 53395U 22097H   26049.95636095  .00000632  00000+0  57806-4 0  9999
2 53395  53.2162 208.2275 0001243  77.6987 282.4145 15.08845569195682
STARLINK-4524           
1 53396U 22097J   26049.87445129 -.00000081  00000+0  12981-4 0  9991
2 53396  53.2161 208.5874 0001438  92.9936 267.1221 15.08834213195678
STARLINK-4515           
1 53397U 22097K   26049.75301110  .00001675  00000+0  12329-3 0  9994
2 53397  53.2160 209.1307 0001192  86.4327 273.6802 15.08836571195659
STARLINK-4512           
1 53398U 22097L   26049.80084705 -.00002126  00000+0 -11551-3 0  9999
2 53398  53.2168 208.9157 0001239  89.6721 270.4413 15.08846366195660
